{
  "type": "FeatureCollection",
  "generator": "overpass-turbo",
  "copyright": "The data included in this document is from www.openstreetmap.org. The data is made available under ODbL.",
  "timestamp": "2025-10-14T07:32:29Z",
  "features": [
    {
      "type": "Feature",
      "properties": {
        "@id": "relation/19331656",
        "admin_level": "6",
        "boundary": "administrative",
        "name": "Phường Kim Liên",
        "name:en": "Kim Lien Ward",
        "population": "109107",
        "population:date": "2025-07-01",
        "source:population": "gis.vn",
        "type": "boundary",
        "wikidata": "Q10779914",
        "wikipedia": "vi:Kim Liên (phường)"
      },
      "geometry": {
        "type": "Polygon",
        "coordinates": [
          [
            [
              105.8358104,
              20.9990678
            ],
            [
              105.8369412,
              20.9988668
            ],
            [
              105.8378847,
              20.9986278
            ],
            [
              105.8396033,
              20.9981994
            ],
            [
              105.841245,
              20.9977764
            ],
            [
              105.8413071,
              21.0004611
            ],
            [
              105.8413091,
              21.0012463
            ],
            [
              105.8413211,
              21.0019144
            ],
            [
              105.8413162,
              21.0029983
            ],
            [
              105.8413541,
              21.004168
            ],
            [
              105.841366,
              21.0049464
            ],
            [
              105.8413946,
              21.0059596
            ],
            [
              105.8414059,
              21.0069435
            ],
            [
              105.8413643,
              21.0076852
            ],
            [
              105.8404096,
              21.0079019
            ],
            [
              105.8397371,
              21.0082245
            ],
            [
              105.83906,
              21.0087694
            ],
            [
              105.8377057,
              21.0101994
            ],
            [
              105.8369351,
              21.0112762
            ],
            [
              105.8357022,
              21.012584
            ],
            [
              105.8343479,
              21.0140095
            ],
            [
              105.8341068,
              21.0142617
            ],
            [
              105.8330214,
              21.0132524
            ],
            [
              105.8324831,
              21.0127632
            ],
            [
              105.8323839,
              21.012572
            ],
            [
              105.8322888,
              21.0123989
            ],
            [
              105.831079,
              21.0113321
            ],
            [
              105.8310375,
              21.0112994
            ],
            [
              105.8293263,
              21.0121737
            ],
            [
              105.829109,
              21.0122288
            ],
            [
              105.8277142,
              21.0129699
            ],
            [
              105.826923,
              21.0134056
            ],
            [
              105.8251586,
              21.0106945
            ],
            [
              105.8244145,
              21.0092307
            ],
            [
              105.8230473,
              21.0066172
            ],
            [
              105.8221364,
              21.0048286
            ],
            [
              105.8220784,
              21.004718
            ],
            [
              105.8220135,
              21.0046109
            ],
            [
              105.8219417,
              21.0045076
            ],
            [
              105.8218635,
              21.0044085
            ],
            [
              105.8217861,
              21.0043215
            ],
            [
              105.8217037,
              21.0042386
            ],
            [
              105.8216165,
              21.0041601
            ],
            [
              105.8215249,
              21.0040861
            ],
            [
              105.8202057,
              21.003109
            ],
            [
              105.821641,
              21.0026901
            ],
            [
              105.8228045,
              21.0024227
            ],
            [
              105.8257817,
              21.0016637
            ],
            [
              105.8267548,
              21.0014485
            ],
            [
              105.8282699,
              21.00096
            ],
            [
              105.8298384,
              21.0004126
            ],
            [
              105.8329565,
              20.9995914
            ],
            [
              105.8339826,
              20.9993479
            ],
            [
              105.8358104,
              20.9990678
            ]
          ]
        ]
      },
      "id": "relation/19331656"
    },
    {
      "type": "Feature",
      "properties": {
        "@id": "node/13072829704",
        "@relations": [
          {
            "role": "label",
            "rel": 19331656,
            "reltags": {
              "admin_level": "6",
              "boundary": "administrative",
              "name": "Phường Kim Liên",
              "name:en": "Kim Lien Ward",
              "population": "109107",
              "population:date": "2025-07-01",
              "source:population": "gis.vn",
              "type": "boundary",
              "wikidata": "Q10779914",
              "wikipedia": "vi:Kim Liên (phường)"
            }
          }
        ]
      },
      "geometry": {
        "type": "Point",
        "coordinates": [
          105.831324,
          21.0060119
        ]
      },
      "id": "node/13072829704"
    }
  ]
}